IRIDIUM 63              
1 25286U 98021B   26009.48541967  .00000485  00000+0  15788-3 0  9992
2 25286  86.3991 355.5690 0002076  82.7795 277.3638 14.36763958453467
IRIDIUM 69              
1 25319U 98026A   26009.48665389  .00000461  00000+0  13664-3 0  9994
2 25319  86.3974   8.2044 0004474  75.1729 284.9966 14.41246127452778
IRIDIUM 73              
1 25344U 98032C   26009.55130144  .00000748  00000+0  18005-3 0  9995
2 25344  86.4432 319.1707 0002623  71.9539 288.1952 14.52037564460509
IRIDIUM 82              
1 25467U 98051A   26009.44655850  .00052112  00000+0  88648-3 0  9998
2 25467  86.3603   7.1269 0055785 221.8537 137.8452 15.49426922455687
